COSMOS 2251 DEB         
1 34003U 93036GN  17346.31922790  .00000621  00000-0  48905-3 0  9993
2 34003  74.0817 105.5558 0302793 175.4533 184.9456 13.74261956442023
